GSAT0101 (GALILEO-PFM)  
1 37846U 11060A   25060.06079426 -.00000084  00000+0  00000+0 0  9994
2 37846  57.1140 354.5841 0004142 343.0067  16.9840  1.70475553 83187
GSAT0102 (GALILEO-FM2)  
1 37847U 11060B   25075.40094191 -.00000099  00000+0  00000+0 0  9991
2 37847  57.1093 354.1692 0005255 341.6512 118.2181  1.70476025 83325
GSAT0103 (GALILEO-FM3)  
1 38857U 12055A   25077.69809292  .00000033  00000+0  00000+0 0  9994
2 38857  55.5383 114.0565 0005700 277.9791  82.0305  1.70473586 77247
GSAT0201 (GALILEO 5)    
1 40128U 14050A   25073.66068734 -.00000049  00000+0  00000+0 0  9994
2 40128  49.3736 292.1527 1622536 161.6352 204.9868  1.85519883 69792
GSAT0202 (GALILEO 6)    
1 40129U 14050B   25076.61287520 -.00000039  00000+0  00000+0 0  9998
2 40129  49.3870 291.1136 1622563 162.5299 203.7838  1.85520556 71973
GSAT0203 (GALILEO 7)    
1 40544U 15017A   25079.19695622 -.00000087  00000+0  00000+0 0  9998
2 40544  56.9053 353.9625 0003977 293.9523  66.0329  1.70475133 61463
GSAT0204 (GALILEO 8)    
1 40545U 15017B   25077.10541200 -.00000094  00000+0  00000+0 0  9998
2 40545  56.9092 354.0363 0003778 283.8463  76.1362  1.70475554 24474
GSAT0205 (GALILEO 9)    
1 40889U 15045A   25078.04690218  .00000030  00000+0  00000+0 0  9997
2 40889  55.1001 234.1739 0005603  48.8871 311.1122  1.70473874 59255
GSAT0206 (GALILEO 10)   
1 40890U 15045B   25075.92117292  .00000018  00000+0  00000+0 0  9995
2 40890  55.1036 234.2280 0003612  51.4740 308.4997  1.70473840 59241
GSAT0209 (GALILEO 12)   
1 41174U 15079A   25076.67656298  .00000032  00000+0  00000+0 0  9991
2 41174  55.5591 113.7963 0004964 313.0034  47.0333  1.70474731 56999
GSAT0208 (GALILEO 11)   
1 41175U 15079B   25079.24282206  .00000036  00000+0  00000+0 0  9996
2 41175  55.5575 113.7231 0004414 312.2311  47.8008  1.70474571 57450
GSAT0211 (GALILEO 14)   
1 41549U 16030A   25078.19327254  .00000031  00000+0  00000+0 0  9990
2 41549  55.2518 234.2061 0003138  23.5776 336.3885  1.70473943 54894
GSAT0210 (GALILEO 13)   
1 41550U 16030B   25075.51812098  .00000016  00000+0  00000+0 0  9993
2 41550  55.2502 234.2780 0001435 184.0429 175.8960  1.70474074 54866
GSAT0207 (GALILEO 15)   
1 41859U 16069A   25077.55658966  .00000032  00000+0  00000+0 0  9993
2 41859  55.2251 113.7065 0005385 300.0955  59.9256  1.70474610 51636
GSAT0212 (GALILEO 16)   
1 41860U 16069B   25079.17029465  .00000035  00000+0  00000+0 0  9994
2 41860  55.2236 113.6577 0003798 321.5883  38.4540  1.70474793 51913
GSAT0213 (GALILEO 17)   
1 41861U 16069C   25077.77867901  .00000033  00000+0  00000+0 0  9992
2 41861  55.2249 113.7036 0005568 285.2085  74.8035  1.70475107 51751
GSAT0214 (GALILEO 18)   
1 41862U 16069D   25079.09736187  .00000035  00000+0  00000+0 0  9993
2 41862  55.2246 113.6600 0004597 287.3202  72.6991  1.70474862 51901
GSAT0215 (GALILEO 19)   
1 43055U 17079A   25077.24113721  .00000026  00000+0  00000+0 0  9999
2 43055  55.2301 234.0502 0000329  26.4094 333.5392  1.70474603 45212
GSAT0216 (GALILEO 20)   
1 43056U 17079B   25078.11920801  .00000031  00000+0  00000+0 0  9998
2 43056  55.2299 234.0261 0001547 308.1580  51.7794  1.70474746 45240
GSAT0217 (GALILEO 21)   
1 43057U 17079C   25076.58004196  .00000022  00000+0  00000+0 0  9998
2 43057  55.2272 234.0669 0001805 351.5913   8.3495  1.70474624 45200
GSAT0218 (GALILEO 22)   
1 43058U 17079D   25077.38667318  .00000027  00000+0  00000+0 0  9994
2 43058  55.2286 234.0421 0001859 293.6512  66.2770  1.70474639 45241
GSAT0221 (GALILEO 25)   
1 43564U 18060A   25076.11529864 -.00000097  00000+0  00000+0 0  9998
2 43564  57.2836 354.1161 0005035 309.8551  50.1231  1.70475623 41372
GSAT0222 (GALILEO 26)   
1 43565U 18060B   25078.09396760 -.00000090  00000+0  00000+0 0  9998
2 43565  57.2866 354.0651 0004237 281.2217  78.7568  1.70475320 41456
GSAT0219 (GALILEO 23)   
1 43566U 18060C   25071.27642253 -.00000111  00000+0  00000+0 0  9997
2 43566  57.2867 354.2510 0004780 325.0073  34.9676  1.70475353 41319
GSAT0220 (GALILEO 24)   
1 43567U 18060D   25076.18991854 -.00000096  00000+0  00000+0 0  9999
2 43567  57.2860 354.1183 0004792 314.7949  45.1888  1.70475747 41381
GSAT0223 (GALILEO 27)   
1 49809U 21116A   25078.71026229 -.00000088  00000+0  00000+0 0  9997
2 49809  57.2757 353.9432 0001614 282.0879 275.2811  1.70475703 20431
GSAT0224 (GALILEO 28)   
1 49810U 21116B   25078.48169294 -.00000089  00000+0  00000+0 0  9994
2 49810  57.2766 353.9475 0001367 301.1632 228.4726  1.70475753 20457
GSAT0225 (GALILEO 29)   
1 59598U 24079A   25079.38864157  .00000035  00000+0  00000+0 0  9999
2 59598  54.8432 113.7748 0003143 249.2539 108.7747  1.70475147  5577
GSAT0227 (GALILEO 30)   
1 59600U 24079C   25078.40213635  .00000033  00000+0  00000+0 0  9992
2 59600  54.8379 113.8017 0000338 206.2591 153.8107  1.70475163  5619
GSAT0232 (GALILEO 32)   
1 61182U 24167A   25074.57163792  .00000011  00000+0  00000+0 0  9996
2 61182  55.3408 233.8937 0002427 185.1841 179.1764  1.70474222  3066
GSAT0226 (GALILEO 31)   
1 61183U 24167B   25079.41709235  .00000036  00000+0  00000+0 0  9990
2 61183  55.3355 233.7669 0001876 128.0777  82.6128  1.70474330  3118
